{
  "type": "FeatureCollection",
  "name": "positive_control_lamdong",
  "note": "Plots Whisp classifies as genuine post-cutoff deforestation (risk_pcrop=high), plus a few more_info_needed. Found by grid search over forest blocks of Lam Dong, not hand-picked.",
  "features": [
    {
      "type": "Feature",
      "properties": {
        "plot_id": "TADUNG-r1c0"
      },
      "geometry": {
        "type": "Polygon",
        "coordinates": [
          [
            [
              107.795,
              11.81
            ],
            [
              107.797,
              11.81
            ],
            [
              107.797,
              11.812000000000001
            ],
            [
              107.795,
              11.812000000000001
            ],
            [
              107.795,
              11.81
            ]
          ]
        ]
      }
    },
    {
      "type": "Feature",
      "properties": {
        "plot_id": "TADUNG-r1c3"
      },
      "geometry": {
        "type": "Polygon",
        "coordinates": [
          [
            [
              107.84,
              11.81
            ],
            [
              107.842,
              11.81
            ],
            [
              107.842,
              11.812000000000001
            ],
            [
              107.84,
              11.812000000000001
            ],
            [
              107.84,
              11.81
            ]
          ]
        ]
      }
    },
    {
      "type": "Feature",
      "properties": {
        "plot_id": "TADUNG-r1c13"
      },
      "geometry": {
        "type": "Polygon",
        "coordinates": [
          [
            [
              107.99000000000001,
              11.81
            ],
            [
              107.992,
              11.81
            ],
            [
              107.992,
              11.812000000000001
            ],
            [
              107.99000000000001,
              11.812000000000001
            ],
            [
              107.99000000000001,
              11.81
            ]
          ]
        ]
      }
    },
    {
      "type": "Feature",
      "properties": {
        "plot_id": "TADUNG-r1c14"
      },
      "geometry": {
        "type": "Polygon",
        "coordinates": [
          [
            [
              108.00500000000001,
              11.81
            ],
            [
              108.007,
              11.81
            ],
            [
              108.007,
              11.812000000000001
            ],
            [
              108.00500000000001,
              11.812000000000001
            ],
            [
              108.00500000000001,
              11.81
            ]
          ]
        ]
      }
    },
    {
      "type": "Feature",
      "properties": {
        "plot_id": "SONDIEN-r7c5"
      },
      "geometry": {
        "type": "Polygon",
        "coordinates": [
          [
            [
              108.02,
              11.47
            ],
            [
              108.02199999999999,
              11.47
            ],
            [
              108.02199999999999,
              11.472000000000001
            ],
            [
              108.02,
              11.472000000000001
            ],
            [
              108.02,
              11.47
            ]
          ]
        ]
      }
    },
    {
      "type": "Feature",
      "properties": {
        "plot_id": "BIDOUP-r0c8"
      },
      "geometry": {
        "type": "Polygon",
        "coordinates": [
          [
            [
              108.685,
              12.075
            ],
            [
              108.687,
              12.075
            ],
            [
              108.687,
              12.077
            ],
            [
              108.685,
              12.077
            ],
            [
              108.685,
              12.075
            ]
          ]
        ]
      }
    },
    {
      "type": "Feature",
      "properties": {
        "plot_id": "BIDOUP-r1c14"
      },
      "geometry": {
        "type": "Polygon",
        "coordinates": [
          [
            [
              108.775,
              12.09
            ],
            [
              108.777,
              12.09
            ],
            [
              108.777,
              12.092
            ],
            [
              108.775,
              12.092
            ],
            [
              108.775,
              12.09
            ]
          ]
        ]
      }
    }
  ]
}